[{"OBJECT_NAME":"GLOBALSTAR M083","OBJECT_ID":"2011-033A","EPOCH":"2026-03-28T18:05:10.303872","MEAN_MOTION":12.62268709,"ECCENTRICITY":8.12e-5,"INCLINATION":51.9847,"RA_OF_ASC_NODE":257.4715,"ARG_OF_PERICENTER":117.0107,"MEAN_ANOMALY":255.8924,"EPHEMERIS_TYPE":0,"CLASSIFICATION_TYPE":"U","NORAD_CAT_ID":37739,"ELEMENT_SET_NO":999,"REV_AT_EPOCH":68279,"BSTAR":0.00016976,"MEAN_MOTION_DOT":-7.3e-7,"MEAN_MOTION_DDOT":0},{"OBJECT_NAME":"GLOBALSTAR M088","OBJECT_ID":"2011-033B","EPOCH":"2026-03-28T16:21:56.319840","MEAN_MOTION":12.62262536,"ECCENTRICITY":4.65e-5,"INCLINATION":52.0206,"RA_OF_ASC_NODE":163.9237,"ARG_OF_PERICENTER":118.1958,"MEAN_ANOMALY":46.965,"EPHEMERIS_TYPE":0,"CLASSIFICATION_TYPE":"U","NORAD_CAT_ID":37740,"ELEMENT_SET_NO":999,"REV_AT_EPOCH":67832,"BSTAR":2.0064e-5,"MEAN_MOTION_DOT":-1.0e-6,"MEAN_MOTION_DDOT":0},{"OBJECT_NAME":"GLOBALSTAR M091","OBJECT_ID":"2011-033C","EPOCH":"2026-03-28T20:30:05.366592","MEAN_MOTION":12.62270648,"ECCENTRICITY":4.84e-5,"INCLINATION":51.9981,"RA_OF_ASC_NODE":126.4823,"ARG_OF_PERICENTER":113.5903,"MEAN_ANOMALY":55.9623,"EPHEMERIS_TYPE":0,"CLASSIFICATION_TYPE":"U","NORAD_CAT_ID":37741,"ELEMENT_SET_NO":999,"REV_AT_EPOCH":67913,"BSTAR":3.3172e-5,"MEAN_MOTION_DOT":-9.8e-7,"MEAN_MOTION_DDOT":0},{"OBJECT_NAME":"GLOBALSTAR M085","OBJECT_ID":"2011-033D","EPOCH":"2026-03-28T16:23:21.079104","MEAN_MOTION":12.62269932,"ECCENTRICITY":5.14e-5,"INCLINATION":52.0119,"RA_OF_ASC_NODE":78.2228,"ARG_OF_PERICENTER":102.4003,"MEAN_ANOMALY":68.3645,"EPHEMERIS_TYPE":0,"CLASSIFICATION_TYPE":"U","NORAD_CAT_ID":37742,"ELEMENT_SET_NO":999,"REV_AT_EPOCH":67962,"BSTAR":4.1873e-5,"MEAN_MOTION_DOT":-9.6e-7,"MEAN_MOTION_DDOT":0},{"OBJECT_NAME":"GLOBALSTAR M081","OBJECT_ID":"2011-033E","EPOCH":"2026-03-28T17:01:44.764032","MEAN_MOTION":12.62263225,"ECCENTRICITY":2.62e-5,"INCLINATION":51.9952,"RA_OF_ASC_NODE":80.6699,"ARG_OF_PERICENTER":104.63,"MEAN_ANOMALY":66.9345,"EPHEMERIS_TYPE":0,"CLASSIFICATION_TYPE":"U","NORAD_CAT_ID":37743,"ELEMENT_SET_NO":999,"REV_AT_EPOCH":67977,"BSTAR":5.1451e-5,"MEAN_MOTION_DOT":-9.5e-7,"MEAN_MOTION_DDOT":0},{"OBJECT_NAME":"GLOBALSTAR M089","OBJECT_ID":"2011-033F","EPOCH":"2026-03-28T21:03:00.742752","MEAN_MOTION":12.62265192,"ECCENTRICITY":3.5e-5,"INCLINATION":51.9953,"RA_OF_ASC_NODE":34.3347,"ARG_OF_PERICENTER":34.9824,"MEAN_ANOMALY":358.4974,"EPHEMERIS_TYPE":0,"CLASSIFICATION_TYPE":"U","NORAD_CAT_ID":37744,"ELEMENT_SET_NO":999,"REV_AT_EPOCH":68064,"BSTAR":4.6281e-5,"MEAN_MOTION_DOT":-9.5e-7,"MEAN_MOTION_DDOT":0},{"OBJECT_NAME":"GLOBALSTAR M084","OBJECT_ID":"2011-080A","EPOCH":"2026-03-28T17:27:33.355296","MEAN_MOTION":12.62266004,"ECCENTRICITY":5.18e-5,"INCLINATION":52,"RA_OF_ASC_NODE":262.2315,"ARG_OF_PERICENTER":96.8146,"MEAN_ANOMALY":276.2968,"EPHEMERIS_TYPE":0,"CLASSIFICATION_TYPE":"U","NORAD_CAT_ID":38040,"ELEMENT_SET_NO":999,"REV_AT_EPOCH":65860,"BSTAR":0.00011189,"MEAN_MOTION_DOT":-8.4e-7,"MEAN_MOTION_DDOT":0},{"OBJECT_NAME":"GLOBALSTAR M080","OBJECT_ID":"2011-080B","EPOCH":"2026-03-28T21:22:15.859776","MEAN_MOTION":12.62267863,"ECCENTRICITY":0.0001232,"INCLINATION":52.0049,"RA_OF_ASC_NODE":263.4262,"ARG_OF_PERICENTER":96.148,"MEAN_ANOMALY":67.5707,"EPHEMERIS_TYPE":0,"CLASSIFICATION_TYPE":"U","NORAD_CAT_ID":38041,"ELEMENT_SET_NO":999,"REV_AT_EPOCH":65874,"BSTAR":0.00012262,"MEAN_MOTION_DOT":-8.2e-7,"MEAN_MOTION_DDOT":0},{"OBJECT_NAME":"GLOBALSTAR M082","OBJECT_ID":"2011-080C","EPOCH":"2026-03-28T15:14:39.909696","MEAN_MOTION":12.62268689,"ECCENTRICITY":0.0001045,"INCLINATION":52.0068,"RA_OF_ASC_NODE":219.6941,"ARG_OF_PERICENTER":109.5644,"MEAN_ANOMALY":263.5838,"EPHEMERIS_TYPE":0,"CLASSIFICATION_TYPE":"U","NORAD_CAT_ID":38042,"ELEMENT_SET_NO":999,"REV_AT_EPOCH":65942,"BSTAR":-2.2724e-5,"MEAN_MOTION_DOT":-1.08e-6,"MEAN_MOTION_DDOT":0},{"OBJECT_NAME":"GLOBALSTAR M092","OBJECT_ID":"2011-080D","EPOCH":"2026-03-28T18:45:31.932576","MEAN_MOTION":12.62265178,"ECCENTRICITY":7.44e-5,"INCLINATION":52.0092,"RA_OF_ASC_NODE":309.6432,"ARG_OF_PERICENTER":87.5655,"MEAN_ANOMALY":351.0188,"EPHEMERIS_TYPE":0,"CLASSIFICATION_TYPE":"U","NORAD_CAT_ID":38043,"ELEMENT_SET_NO":999,"REV_AT_EPOCH":65789,"BSTAR":0.00018949,"MEAN_MOTION_DOT":-7.0e-7,"MEAN_MOTION_DDOT":0},{"OBJECT_NAME":"GLOBALSTAR M090","OBJECT_ID":"2011-080E","EPOCH":"2026-03-28T18:34:55.079040","MEAN_MOTION":12.62272123,"ECCENTRICITY":7.78e-5,"INCLINATION":52.0118,"RA_OF_ASC_NODE":213.2004,"ARG_OF_PERICENTER":122.0559,"MEAN_ANOMALY":42.5185,"EPHEMERIS_TYPE":0,"CLASSIFICATION_TYPE":"U","NORAD_CAT_ID":38044,"ELEMENT_SET_NO":999,"REV_AT_EPOCH":65955,"BSTAR":-6.362e-5,"MEAN_MOTION_DOT":-1.15e-6,"MEAN_MOTION_DDOT":0},{"OBJECT_NAME":"GLOBALSTAR M086","OBJECT_ID":"2011-080F","EPOCH":"2026-03-28T14:31:56.609184","MEAN_MOTION":12.62284605,"ECCENTRICITY":9.15e-5,"INCLINATION":51.9893,"RA_OF_ASC_NODE":213.7759,"ARG_OF_PERICENTER":195.2343,"MEAN_ANOMALY":177.8529,"EPHEMERIS_TYPE":0,"CLASSIFICATION_TYPE":"U","NORAD_CAT_ID":38045,"ELEMENT_SET_NO":999,"REV_AT_EPOCH":65948,"BSTAR":3.9425e-5,"MEAN_MOTION_DOT":-9.7e-7,"MEAN_MOTION_DDOT":0},{"OBJECT_NAME":"GLOBALSTAR M097","OBJECT_ID":"2013-005A","EPOCH":"2026-03-28T18:58:00.846048","MEAN_MOTION":12.62260101,"ECCENTRICITY":4.78e-5,"INCLINATION":52.003,"RA_OF_ASC_NODE":128.0673,"ARG_OF_PERICENTER":127.7956,"MEAN_ANOMALY":232.2954,"EPHEMERIS_TYPE":0,"CLASSIFICATION_TYPE":"U","NORAD_CAT_ID":39072,"ELEMENT_SET_NO":999,"REV_AT_EPOCH":60675,"BSTAR":7.7722e-5,"MEAN_MOTION_DOT":-9.0e-7,"MEAN_MOTION_DDOT":0},{"OBJECT_NAME":"GLOBALSTAR M093","OBJECT_ID":"2013-005B","EPOCH":"2026-03-28T12:38:15.959040","MEAN_MOTION":12.622642,"ECCENTRICITY":5.963e-5,"INCLINATION":52.0088,"RA_OF_ASC_NODE":122.1885,"ARG_OF_PERICENTER":142.1293,"MEAN_ANOMALY":217.9615,"EPHEMERIS_TYPE":0,"CLASSIFICATION_TYPE":"U","NORAD_CAT_ID":39073,"ELEMENT_SET_NO":999,"REV_AT_EPOCH":60667,"BSTAR":3.5910854e-5,"MEAN_MOTION_DOT":-9.7e-7,"MEAN_MOTION_DDOT":0},{"OBJECT_NAME":"GLOBALSTAR M094","OBJECT_ID":"2013-005C","EPOCH":"2026-03-28T12:38:28.337568","MEAN_MOTION":12.62267121,"ECCENTRICITY":5.03e-5,"INCLINATION":51.9982,"RA_OF_ASC_NODE":36.3848,"ARG_OF_PERICENTER":100.9592,"MEAN_ANOMALY":259.1332,"EPHEMERIS_TYPE":0,"CLASSIFICATION_TYPE":"U","NORAD_CAT_ID":39074,"ELEMENT_SET_NO":999,"REV_AT_EPOCH":60828,"BSTAR":-3.7891457e-5,"MEAN_MOTION_DOT":-1.11e-6,"MEAN_MOTION_DDOT":0},{"OBJECT_NAME":"GLOBALSTAR M096","OBJECT_ID":"2013-005D","EPOCH":"2026-03-28T16:45:33.767136","MEAN_MOTION":12.6226391,"ECCENTRICITY":4.29e-5,"INCLINATION":52.0064,"RA_OF_ASC_NODE":84.5991,"ARG_OF_PERICENTER":110.1202,"MEAN_ANOMALY":249.971,"EPHEMERIS_TYPE":0,"CLASSIFICATION_TYPE":"U","NORAD_CAT_ID":39075,"ELEMENT_SET_NO":999,"REV_AT_EPOCH":60722,"BSTAR":2.3334e-5,"MEAN_MOTION_DOT":-1.0e-6,"MEAN_MOTION_DDOT":0},{"OBJECT_NAME":"GLOBALSTAR M078","OBJECT_ID":"2013-005E","EPOCH":"2026-03-28T16:06:54.205344","MEAN_MOTION":12.622751,"ECCENTRICITY":0.0001371,"INCLINATION":51.9864,"RA_OF_ASC_NODE":168.803,"ARG_OF_PERICENTER":98.6024,"MEAN_ANOMALY":261.4998,"EPHEMERIS_TYPE":0,"CLASSIFICATION_TYPE":"U","NORAD_CAT_ID":39076,"ELEMENT_SET_NO":999,"REV_AT_EPOCH":60584,"BSTAR":8.3241e-5,"MEAN_MOTION_DOT":-8.9e-7,"MEAN_MOTION_DDOT":0}]
