GLOBALSTAR M083         
1 37739U 11033A   26087.75359148 -.00000073  00000+0  16976-3 0  9994
2 37739  51.9847 257.4715 0000812 117.0107 255.8924 12.62268709682794
GLOBALSTAR M088         
1 37740U 11033B   26087.68190185 -.00000100  00000+0  20064-4 0  9997
2 37740  52.0206 163.9237 0000465 118.1958  46.9650 12.62262536678328
GLOBALSTAR M091         
1 37741U 11033C   26087.85422878 -.00000098  00000+0  33172-4 0  9994
2 37741  51.9981 126.4823 0000484 113.5903  55.9623 12.62270648679135
GLOBALSTAR M085         
1 37742U 11033D   26087.68288286 -.00000096  00000+0  41873-4 0  9994
2 37742  52.0119  78.2228 0000514 102.4003  68.3645 12.62269932679626
GLOBALSTAR M081         
1 37743U 11033E   26087.70954588 -.00000095  00000+0  51451-4 0  9995
2 37743  51.9952  80.6699 0000262 104.6300  66.9345 12.62263225679779
GLOBALSTAR M089         
1 37744U 11033F   26087.87709193 -.00000095  00000+0  46281-4 0  9999
2 37744  51.9953  34.3347 0000350  34.9824 358.4974 12.62265192680641
GLOBALSTAR M084         
1 38040U 11080A   26087.72746939 -.00000084  00000+0  11189-3 0  9990
2 38040  52.0000 262.2315 0000518  96.8146 276.2968 12.62266004658607
GLOBALSTAR M080         
1 38041U 11080B   26087.89046134 -.00000082  00000+0  12262-3 0  9990
2 38041  52.0049 263.4262 0001232  96.1480  67.5707 12.62267863658744
GLOBALSTAR M082         
1 38042U 11080C   26087.63518414 -.00000108  00000+0 -22724-4 0  9993
2 38042  52.0068 219.6941 0001045 109.5644 263.5838 12.62268689659422
GLOBALSTAR M092         
1 38043U 11080D   26087.78161959 -.00000070  00000+0  18949-3 0  9998
2 38043  52.0092 309.6432 0000744  87.5655 351.0188 12.62265178657897
GLOBALSTAR M090         
1 38044U 11080E   26087.77424860 -.00000115  00000+0 -63620-4 0  9999
2 38044  52.0118 213.2004 0000778 122.0559  42.5185 12.62272123659559
GLOBALSTAR M086         
1 38045U 11080F   26087.60551631 -.00000097  00000+0  39425-4 0  9993
2 38045  51.9893 213.7759 0000915 195.2343 177.8529 12.62284605659480
GLOBALSTAR M097         
1 39072U 13005A   26087.79028757 -.00000090  00000+0  77722-4 0  9996
2 39072  52.0030 128.0673 0000478 127.7956 232.2954 12.62260101606758
GLOBALSTAR M093         
1 39073U 13005B   26087.52657360 -.00000097  00000+0  35911-4 0  9997
2 39073  52.0088 122.1885 0000596 142.1293 217.9615 12.62264200606677
GLOBALSTAR M094         
1 39074U 13005C   26087.52671687 -.00000111  00000+0 -37891-4 0  9993
2 39074  51.9982  36.3848 0000503 100.9592 259.1332 12.62267121608284
GLOBALSTAR M096         
1 39075U 13005D   26087.69830749 -.00000100  00000+0  23334-4 0  9992
2 39075  52.0064  84.5991 0000429 110.1202 249.9710 12.62263910607222
GLOBALSTAR M078         
1 39076U 13005E   26087.67146071 -.00000089  00000+0  83241-4 0  9998
2 39076  51.9864 168.8030 0001371  98.6024 261.4998 12.62275100605845
